[{"OBJECT_NAME":"MESON-1","OBJECT_ID":"2024-043AK","EPOCH":"2026-03-09T21:36:16.481664","MEAN_MOTION":15.29893494,"ECCENTRICITY":0.00095452,"INCLINATION":97.5469,"RA_OF_ASC_NODE":205.2839,"ARG_OF_PERICENTER":227.1432,"MEAN_ANOMALY":132.9007,"EPHEMERIS_TYPE":0,"CLASSIFICATION_TYPE":"U","NORAD_CAT_ID":59131,"ELEMENT_SET_NO":999,"REV_AT_EPOCH":11189,"BSTAR":0.0002974823,"MEAN_MOTION_DOT":8.544e-5,"MEAN_MOTION_DDOT":0},{"OBJECT_NAME":"STARLINK-31858","OBJECT_ID":"2024-084E","EPOCH":"2026-03-09T06:43:13.000512","MEAN_MOTION":15.2759031,"ECCENTRICITY":0.0001278,"INCLINATION":43.0009,"RA_OF_ASC_NODE":43.8412,"ARG_OF_PERICENTER":268.048,"MEAN_ANOMALY":92.0226,"EPHEMERIS_TYPE":0,"CLASSIFICATION_TYPE":"U","NORAD_CAT_ID":59658,"ELEMENT_SET_NO":999,"REV_AT_EPOCH":10431,"BSTAR":1.6448491e-5,"MEAN_MOTION_DOT":1.91e-6,"MEAN_MOTION_DDOT":0}]
